NORAD_CAT_ID,OBJECT_NAME,OBJECT_TYPE,EPOCH,MEAN_MOTION,ECCENTRICITY,INCLINATION,RA_OF_ASC_NODE,ARG_OF_PERICENTER,MEAN_ANOMALY,BSTAR,MEAN_MOTION_DOT,MEAN_MOTION_DDOT,TLE_LINE0,TLE_LINE1,TLE_LINE2,SEMIMAJOR_AXIS,PERIOD,APOGEE,PERIGEE,DECAYED
52127.0,STARLINK-3715,PAYLOAD,2022-07-13 14:00:01,15.08836152,0.000188,53.2151,302.6472,49.7923,124.6915,-0.00058145,-9.529e-05,0.0,0 STARLINK-3715,1 52127U 22029AR  22194.58334491 -.00009529  00000-0 -58145-3 0  9990,2 52127  53.2151 302.6472 0001880  49.7923 124.6915 15.08836152  1302,6917.892,95.438,541.058,538.457,0.0
52127.0,STARLINK-3715,PAYLOAD,2022-07-13 22:00:00,15.08845173,0.0001817,53.2148,301.1504,47.967,138.094,-0.003302,-0.00052465,0.0,0 STARLINK-3715,1 52127U 22029AR  22194.91667824 -.00052465  00000-0 -33020-2 0  9997,2 52127  53.2148 301.1504 0001817  47.9670 138.0940 15.08845173 19418,6917.865,95.437,540.987,538.4730000000002,0.0
52127.0,STARLINK-3715,PAYLOAD,2022-07-14 14:00:01,15.08822082,0.0001876,53.2148,298.1584,48.0294,161.1795,0.0003271,4.919e-05,0.0,0 STARLINK-3715,1 52127U 22029AR  22195.58334491  .00004919  00000-0  32710-3 0  9997,2 52127  53.2148 298.1584 0001876  48.0294 161.1795 15.08822082 19510,6917.935,95.439,541.0980000000002,538.502,0.0
52127.0,STARLINK-3715,PAYLOAD,2022-07-14 22:00:00,15.08849554,0.0001829,53.2147,296.6614,46.8334,173.9469,-0.0014979,-0.00024055,0.0,0 STARLINK-3715,1 52127U 22029AR  22195.91667824 -.00024055  00000-0 -14979-2 0  9994,2 52127  53.2147 296.6614 0001829  46.8334 173.9469 15.08849554  1305,6917.851,95.437,540.981,538.451,0.0
52127.0,STARLINK-3715,PAYLOAD,2022-07-15 14:00:01,15.08861256,0.0001927,53.2147,293.6693,46.3833,197.6017,-0.0014218,-0.00022858,0.0,0 STARLINK-3715,1 52127U 22029AR  22196.58334491 -.00022858  00000-0 -14218-2 0  9994,2 52127  53.2147 293.6693 0001927  46.3833 197.6017 15.08861256 19660,6917.815,95.436,541.013,538.347,0.0
52127.0,STARLINK-3715,PAYLOAD,2022-07-15 22:00:00,15.08858562,0.0001831,53.2147,292.1721,44.3601,211.2389,-0.0014822,-0.00023812,0.0,0 STARLINK-3715,1 52127U 22029AR  22196.91667824 -.00023812  00000-0 -14822-2 0  9992,2 52127  53.2147 292.1721 0001831  44.3601 211.2389 15.08858562  1304,6917.824000000001,95.436,540.955,538.422,0.0
52127.0,STARLINK-3715,PAYLOAD,2022-07-16 14:00:01,15.088402,0.0001996,53.2148,289.18,45.7429,233.0682,-0.0012125,-0.00019534,0.0,0 STARLINK-3715,1 52127U 22029AR  22197.58334491 -.00019534  00000-0 -12125-2 0  9997,2 52127  53.2148 289.1800 0001996  45.7429 233.0682 15.08840200 19817,6917.88,95.438,541.126,538.364,0.0
52127.0,STARLINK-3715,PAYLOAD,2022-07-16 22:00:00,15.08842917,0.0001869,53.2147,287.6827,44.0928,246.3155,-0.0013125,-0.00021118,0.0,0 STARLINK-3715,1 52127U 22029AR  22197.91667824 -.00021118  00000-0 -13125-2 0  9995,2 52127  53.2147 287.6827 0001869  44.0928 246.3155 15.08842917  1307,6917.871,95.437,541.029,538.444,0.0
52127.0,STARLINK-3715,PAYLOAD,2022-07-17 06:00:00,15.08839022,0.0001767,53.2149,286.1853,48.76600000000001,253.2296,0.001796,0.0002841,0.0,0 STARLINK-3715,1 52127U 22029AR  22198.25001157  .00028410  00000-0  17960-2 0  9995,2 52127  53.2149 286.1853 0001767  48.7660 253.2296 15.08839022 19915,6917.8830000000025,95.438,540.971,538.526,0.0
52127.0,STARLINK-3715,PAYLOAD,2022-07-17 14:00:01,15.08828509,0.0001902,53.2148,284.6907,41.9747,271.6095,-0.0008718999999999,-0.00014133,0.0,0 STARLINK-3715,1 52127U 22029AR  22198.58334491 -.00014133  00000-0 -87190-3 0  9993,2 52127  53.2148 284.6907 0001902  41.9747 271.6095 15.08828509 19963,6917.916,95.438,541.096,538.465,0.0
52127.0,STARLINK-3715,PAYLOAD,2022-07-17 22:00:00,15.08838811,0.0001789,53.2155,283.1903,40.5603,284.5992,-0.0045577,-0.00072097,0.0,0 STARLINK-3715,1 52127U 22029AR  22198.91667824 -.00072097  00000-0 -45577-2 0  9994,2 52127  53.2155 283.1903 0001789  40.5603 284.5992 15.08838811  1305,6917.884,95.438,540.987,538.511,0.0
52127.0,STARLINK-3715,PAYLOAD,2022-07-18 14:00:01,15.08804403,0.0001815,53.2146,280.2014,38.756,309.5264,0.0015142,0.00023869,0.0,0 STARLINK-3715,1 52127U 22029AR  22199.58334491  .00023869  00000-0  15142-2 0  9995,2 52127  53.2146 280.2014 0001815  38.7560 309.5264 15.08804403  1307,6917.989000000001,95.44,541.11,538.599,0.0
52127.0,STARLINK-3715,PAYLOAD,2022-07-18 22:00:00,15.08835267,0.0001689,53.2144,278.7036,39.3112,320.5325,-0.0013379,-0.00021515,0.0,0 STARLINK-3715,1 52127U 22029AR  22199.91667824 -.00021515  00000-0 -13379-2 0  9999,2 52127  53.2144 278.7036 0001689  39.3112 320.5325 15.08835267 20168,6917.895,95.438,540.928,538.591,0.0
52127.0,STARLINK-3715,PAYLOAD,2022-07-19 14:00:01,15.08829271,0.0001809,53.2143,275.7121,38.8918,344.1299,0.0019135,0.00030288,0.0,0 STARLINK-3715,1 52127U 22029AR  22200.58334491  .00030288  00000-0  19135-2 0  9997,2 52127  53.2143 275.7121 0001809  38.8918 344.1299 15.08829271 20273,6917.913000000001,95.438,541.03,538.5269999999998,0.0
52127.0,STARLINK-3715,PAYLOAD,2022-07-19 22:00:00,15.08844335,0.0001726,53.2155,274.2111,38.4901,356.1226,0.0011778,0.00018509,0.0,0 STARLINK-3715,1 52127U 22029AR  22200.91667824  .00018509  00000-0  11778-2 0  9990,2 52127  53.2155 274.2111 0001726  38.4901 356.1226 15.08844335  1309,6917.8669999999975,95.437,540.9259999999998,538.538,0.0
52127.0,STARLINK-3715,PAYLOAD,2022-07-20 14:00:01,15.08844712,0.0001879,53.2139,271.2225,41.2194,16.6453,-0.00045168,-7.471e-05,0.0,0 STARLINK-3715,1 52127U 22029AR  22201.58334491 -.00007471  00000-0 -45168-3 0  9994,2 52127  53.2139 271.2225 0001879  41.2194  16.6453 15.08844712  1308,6917.866,95.437,541.031,538.431,0.0
52127.0,STARLINK-3715,PAYLOAD,2022-07-20 22:00:01,15.08825229,0.0001696999999999,53.2137,269.7244,41.8412,27.6804,-0.00034095,-5.708e-05,0.0,0 STARLINK-3715,1 52127U 22029AR  22201.91668981 -.00005708  00000-0 -34095-3 0  9993,2 52127  53.2137 269.7244 0001697  41.8412  27.6804 15.08825229  1300,6917.926,95.438,540.965,538.617,0.0
52127.0,STARLINK-3715,PAYLOAD,2022-07-21 14:00:01,15.08808745,0.0001817,53.2137,266.733,37.6174,55.0607,0.00013438,1.849e-05,0.0,0 STARLINK-3715,1 52127U 22029AR  22202.58335648  .00001849  00000-0  13438-3 0  9996,2 52127  53.2137 266.7330 0001817  37.6174  55.0607 15.08808745  1305,6917.976,95.44,541.0980000000002,538.5840000000002,0.0
52127.0,STARLINK-3715,PAYLOAD,2022-07-21 22:00:00,15.08808936,0.0001663,53.2137,265.235,38.7143,65.4622,-0.00013273,-2.398e-05,0.0,0 STARLINK-3715,1 52127U 22029AR  22202.91667824 -.00002398  00000-0 -13273-3 0  9996,2 52127  53.2137 265.2350 0001663  38.7143  65.4622 15.08808936  1302,6917.975,95.44,540.991,538.69,0.0
52127.0,STARLINK-3715,PAYLOAD,2022-07-22 06:00:00,15.08828312,0.0001695,53.2137,263.7386,41.9078,73.8219,-0.00052064,-8.562e-05,0.0,0 STARLINK-3715,1 52127U 22029AR  22203.25001157 -.00008562  00000-0 -52064-3 0  9995,2 52127  53.2137 263.7386 0001695  41.9078  73.8219 15.08828312  1307,6917.916,95.438,540.9540000000002,538.609,0.0
52127.0,STARLINK-3715,PAYLOAD,2022-07-22 22:00:00,15.088279,0.0001749,53.2139,260.7457,38.6449,100.241,0.0004501,6.879999999999999e-05,0.0,0 STARLINK-3715,1 52127U 22029AR  22203.91667824  .00006880  00000-0  45010-3 0  9999,2 52127  53.2139 260.7457 0001749  38.6449 100.2410 15.08827900 20772,6917.917,95.438,540.992,538.572,0.0
52127.0,STARLINK-3715,PAYLOAD,2022-07-23 14:00:01,15.08814408,0.0001994,53.214,257.7544,36.0834,126.0434,0.0031864,0.00050754,0.0,0 STARLINK-3715,1 52127U 22029AR  22204.58335648  .00050754  00000-0  31864-2 0  9999,2 52127  53.2140 257.7544 0001994  36.0834 126.0434 15.08814408  1308,6917.959,95.439,541.203,538.444,0.0
52127.0,STARLINK-3715,PAYLOAD,2022-07-23 22:00:00,15.08841603,0.000183,53.2142,256.2563,38.9944,134.667,0.00089098,0.00013921,0.0,0 STARLINK-3715,1 52127U 22029AR  22204.91667824  .00013921  00000-0  89098-3 0  9998,2 52127  53.2142 256.2563 0001830  38.9944 134.6670 15.08841603  1301,6917.875,95.437,541.006,538.475,0.0
52127.0,STARLINK-3715,PAYLOAD,2022-07-24 06:00:00,15.08866491,0.0001885999999999,53.2143,254.7602,41.4907,143.7652,-0.0011707,-0.00018885,0.0,0 STARLINK-3715,1 52127U 22029AR  22205.25001157 -.00018885  00000-0 -11707-2 0  9994,2 52127  53.2143 254.7602 0001886  41.4907 143.7652 15.08866491 20975,6917.799,95.436,540.969,538.36,0.0
52127.0,STARLINK-3715,PAYLOAD,2022-07-24 14:00:01,15.08837853,0.0002056,53.2142,253.2651,35.9911,160.8861,0.0019882999999999,0.00031496,0.0,0 STARLINK-3715,1 52127U 22029AR  22205.58334491  .00031496  00000-0  19883-2 0  9994,2 52127  53.2142 253.2651 0002056  35.9911 160.8861 15.08837853  1303,6917.887,95.438,541.174,538.33,0.0
52127.0,STARLINK-3715,PAYLOAD,2022-07-24 22:00:00,15.08832921,0.0001827,53.2143,251.7669,37.5572,170.9364,0.00013399,1.845e-05,0.0,0 STARLINK-3715,1 52127U 22029AR  22205.91667824  .00001845  00000-0  13399-3 0  9992,2 52127  53.2143 251.7669 0001827  37.5572 170.9364 15.08832921  1303,6917.901999999999,95.438,541.031,538.503,0.0
52127.0,STARLINK-3715,PAYLOAD,2022-07-25 14:00:01,15.0881695,0.000204,53.2141,248.7759,34.4428,197.2339,0.0027839,0.00044269,0.0,0 STARLINK-3715,1 52127U 22029AR  22206.58334491  .00044269  00000-0  27839-2 0  9997,2 52127  53.2141 248.7759 0002040  34.4428 197.2339 15.08816950  1309,6917.951,95.439,541.227,538.405,0.0
52127.0,STARLINK-3715,PAYLOAD,2022-07-25 22:00:00,15.08826316,0.000183,53.2141,247.2777,38.0211,205.2504,0.0015638,0.00024678,0.0,0 STARLINK-3715,1 52127U 22029AR  22206.91667824  .00024678  00000-0  15638-2 0  9999,2 52127  53.2141 247.2777 0001830  38.0211 205.2504 15.08826316  1300,6917.922,95.438,541.053,538.521,0.0
52127.0,STARLINK-3715,PAYLOAD,2022-07-26 06:00:00,15.08858189,0.0001881,53.2141,245.7821,39.3031,215.5523,-0.0016550999999999,-0.00026546,0.0,0 STARLINK-3715,1 52127U 22029AR  22207.25001157 -.00026546  00000-0 -16551-2 0  9991,2 52127  53.2141 245.7821 0001881  39.3031 215.5523 15.08858189 21279,6917.825,95.436,540.991,538.389,0.0
